NORAD_CAT_ID,OBJECT_NAME,OBJECT_TYPE,EPOCH,MEAN_MOTION,ECCENTRICITY,INCLINATION,RA_OF_ASC_NODE,ARG_OF_PERICENTER,MEAN_ANOMALY,BSTAR,MEAN_MOTION_DOT,MEAN_MOTION_DDOT,TLE_LINE0,TLE_LINE1,TLE_LINE2,SEMIMAJOR_AXIS,PERIOD,APOGEE,PERIGEE,DECAYED
55654.0,STARLINK-5070,PAYLOAD,2023-03-17 16:45:15,15.69922162,0.0003014,70.0007,71.422,269.4324,90.6526,1.0128e-05,1.005e-05,0.0,0 STARLINK-5070,1 55654U 23021AC  23076.69809661  .00001005  00000-0  10128-4 0  9998,2 55654  70.0007  71.4220 0003014 269.4324  90.6526 15.69922162  4932,6737.257,91.724,361.152,357.091,0.0
55654.0,STARLINK-5070,PAYLOAD,2023-03-18 01:55:45,15.69933279,0.0003237,70.0033,70.3494,264.6311,95.4515,4.2087e-05,4.853e-05,0.0,0 STARLINK-5070,1 55654U 23021AC  23077.08039298  .00004853  00000-0  42087-4 0  9996,2 55654  70.0033  70.3494 0003237 264.6311  95.4515 15.69933279  4990,6737.225,91.724,361.271,356.909,0.0
55654.0,STARLINK-5070,PAYLOAD,2023-03-18 11:06:16,15.69931473,0.0003563,70.002,69.2731,265.9257,94.1532,3.1451e-05,3.572e-05,0.0,0 STARLINK-5070,1 55654U 23021AC  23077.46269263  .00003572  00000-0  31451-4 0  9995,2 55654  70.0020  69.2731 0003563 265.9257  94.1532 15.69931473  5352,6737.23,91.724,361.496,356.695,0.0
55654.0,STARLINK-5070,PAYLOAD,2023-03-19 05:27:18,15.69930137,0.0003643,70.0006,67.1229,266.5452,93.5327,1.437e-05,1.516e-05,0.0,0 STARLINK-5070,1 55654U 23021AC  23078.22729290  .00001516  00000-0  14370-4 0  9998,2 55654  70.0006  67.1229 0003643 266.5452  93.5327 15.69930137  5179,6737.234,91.724,361.553,356.645,0.0
55654.0,STARLINK-5070,PAYLOAD,2023-03-19 08:30:48,15.69932598,0.0003548,70.0004,66.7646,266.3484,93.7306,2.1395e-05,2.361e-05,0.0,0 STARLINK-5070,1 55654U 23021AC  23078.35472556  .00002361  00000-0  21395-4 0  9996,2 55654  70.0004  66.7646 0003548 266.3484  93.7306 15.69932598  5499,6737.227,91.724,361.482,356.701,0.0
55654.0,STARLINK-5070,PAYLOAD,2023-03-19 16:09:33,15.699296,0.0003477,70.0001,65.8687,266.268,93.8118,2.781e-05,3.133e-05,0.0,0 STARLINK-5070,1 55654U 23021AC  23078.67330981  .00003133  00000-0  27810-4 0  9992,2 55654  70.0001  65.8687 0003477 266.2680  93.8118 15.69929600  5547,6737.235,91.724,361.443,356.758,0.0
55654.0,STARLINK-5070,PAYLOAD,2023-03-20 02:51:50,15.69923063,0.0003386,70.0009,64.6155,265.9083,94.1726,4.1166e-06,2.82e-06,0.0,0 STARLINK-5070,1 55654U 23021AC  23079.11932997  .00000282  00000-0  41166-5 0  9990,2 55654  70.0009  64.6155 0003386 265.9083  94.1726 15.69923063  5315,6737.254,91.724,361.4,356.838,0.0
55654.0,STARLINK-5070,PAYLOAD,2023-03-20 10:30:35,15.69922184,0.0003061,70.0004,63.7166,281.4321,78.6531,4.2011e-06,2.93e-06,0.0,0 STARLINK-5070,1 55654U 23021AC  23079.43791425  .00000293  00000-0  42011-5 0  9996,2 55654  70.0004  63.7166 0003061 281.4321  78.6531 15.69922184  5662,6737.257,91.724,361.184,357.059,0.0
55654.0,STARLINK-5070,PAYLOAD,2023-03-20 16:37:36,15.69923006,0.0003227,70.0001,63.0025,275.8142,84.2686,1.6242e-05,1.741e-05,0.0,0 STARLINK-5070,1 55654U 23021AC  23079.69278231  .00001741  00000-0  16242-4 0  9994,2 55654  70.0001  63.0025 0003227 275.8142  84.2686 15.69923006  5701,6737.254,91.724,361.293,356.945,0.0
55654.0,STARLINK-5070,PAYLOAD,2023-03-21 07:55:07,15.6992834,0.0003249,70.0008,61.2096,271.931,88.1514,1.7881e-05,1.938e-05,0.0,0 STARLINK-5070,1 55654U 23021AC  23080.32994490  .00001938  00000-0  17881-4 0  9996,2 55654  70.0008  61.2096 0003249 271.9310  88.1514 15.69928340  5501,6737.239,91.724,361.293,356.915,0.0
55654.0,STARLINK-5070,PAYLOAD,2023-03-21 10:58:38,15.69906536,0.0002116,70.0015,60.8524,294.4991,65.5984,-2.695e-05,-3.448e-05,0.0,0 STARLINK-5070,1 55654U 23021AC  23080.45739196 -.00003448  00000-0 -26950-4 0  9997,2 55654  70.0015  60.8524 0002116 294.4991  65.5984 15.69906536  5522,6737.301,91.725,360.592,357.741,0.0
55654.0,STARLINK-5070,PAYLOAD,2023-03-22 05:19:39,15.69934423,0.0003694,70.0012,58.7033,270.824,89.2533,4.9958e-05,5.801e-05,0.0,0 STARLINK-5070,1 55654U 23021AC  23081.22197978  .00005801  00000-0  49958-4 0  9995,2 55654  70.0012  58.7033 0003694 270.8240  89.2533 15.69934423  5649,6737.222,91.724,361.575,356.598,0.0
55654.0,STARLINK-5070,PAYLOAD,2023-03-22 08:23:09,15.69920228,0.0002702,70.0026,58.3439,272.6532,87.4355,3.2417e-06,1.77e-06,0.0,0 STARLINK-5070,1 55654U 23021AC  23081.34941793  .00000177  00000-0  32417-5 0  9994,2 55654  70.0026  58.3439 0002702 272.6532  87.4355 15.69920228  5665,6737.262,91.724,360.948,357.307,0.0
55654.0,STARLINK-5070,PAYLOAD,2023-03-22 16:01:55,15.69930495,0.0002897,70.0016,57.4482,267.0727,93.0137,6.5392e-05,7.659e-05,0.0,0 STARLINK-5070,1 55654U 23021AC  23081.66799952  .00007659  00000-0  65392-4 0  9996,2 55654  70.0016  57.4482 0002897 267.0727  93.0137 15.69930495  6019,6737.233,91.724,361.05,357.146,0.0
55654.0,STARLINK-5070,PAYLOAD,2023-03-23 08:51:11,15.69923344,0.0003408,70.0013,55.4779,265.6458,94.4349,1.057e-05,1.058e-05,0.0,0 STARLINK-5070,1 55654U 23021AC  23082.36888334  .00001058  00000-0  10570-4 0  9992,2 55654  70.0013  55.4779 0003408 265.6458  94.4349 15.69923344  5820,6737.253,91.724,361.414,356.822,0.0
55654.0,STARLINK-5070,PAYLOAD,2023-03-23 22:36:57,15.69936171,0.0003515,70.0015,53.8666,269.0167,91.0626,4.0641e-05,4.679e-05,0.0,0 STARLINK-5070,1 55654U 23021AC  23082.94232918  .00004679  00000-0  40641-4 0  9991,2 55654  70.0015  53.8666 0003515 269.0167  91.0626 15.69936171  6210,6737.217,91.723,361.45,356.713,0.0
55654.0,STARLINK-5070,PAYLOAD,2023-03-24 04:43:56,15.69975125,0.0003251,70.0034,53.1524,259.2963,100.7867,0.00016439,0.00019641,0.0,0 STARLINK-5070,1 55654U 23021AC  23083.19718425  .00019641  00000-0  16439-3 0  9993,2 55654  70.0034  53.1524 0003251 259.2963 100.7867 15.69975125  5956,6737.105,91.721,361.16,356.78,0.0
55654.0,STARLINK-5070,PAYLOAD,2023-03-24 07:47:28,15.69919281,0.0003203,70.0029,52.7935,275.2774,84.8057,-3.1784e-05,-4.032e-05,0.0,0 STARLINK-5070,1 55654U 23021AC  23083.32463107 -.00004032  00000-0 -31784-4 0  9993,2 55654  70.0029  52.7935 0003203 275.2774  84.8057 15.69919281  5972,6737.265,91.724,361.288,356.972,0.0
55654.0,STARLINK-5070,PAYLOAD,2023-03-24 15:26:14,15.6989909,0.0002431,70.0035,51.8969,292.8082,67.2857,-9.4777e-05,-0.00011579,0.0,0 STARLINK-5070,1 55654U 23021AC  23083.64322454 -.00011579  00000-0 -94777-4 0  9992,2 55654  70.0035  51.8969 0002431 292.8082  67.2857 15.69899090  6020,6737.323,91.726,360.826,357.55,0.0
55654.0,STARLINK-5070,PAYLOAD,2023-03-25 00:36:45,15.69898581,0.0002878,70.0029,50.8217,228.5645,131.5304,-5.8641e-05,-7.249e-05,0.0,0 STARLINK-5070,1 55654U 23021AC  23084.02552902 -.00007249  00000-0 -58641-4 0  9997,2 55654  70.0029  50.8217 0002878 228.5645 131.5304 15.69898581  6086,6737.324,91.726,361.128,357.25,0.0
55654.0,STARLINK-5070,PAYLOAD,2023-03-25 06:43:46,15.69919601,0.000277,70.0045,50.1081,228.6655,131.4303,5.3344e-05,6.205e-05,0.0,0 STARLINK-5070,1 55654U 23021AC  23084.28039707  .00006205  00000-0  53344-4 0  9992,2 55654  70.0045  50.1081 0002770 228.6655 131.4303 15.69919601  6129,6737.264,91.724,360.995,357.263,0.0
55654.0,STARLINK-5070,PAYLOAD,2023-03-26 11:47:02,15.69927122,0.0004223,70.0014,46.7006,270.0542,90.017,9.3332e-06,9.09e-06,0.0,0 STARLINK-5070,1 55654U 23021AC  23085.49100309  .00000909  00000-0  93332-5 0  9990,2 55654  70.0014  46.7006 0004223 270.0542  90.0170 15.69927122  6314,6737.243,91.724,361.953,356.262,0.0
55654.0,STARLINK-5070,PAYLOAD,2023-03-26 22:29:18,15.69932044,0.0004309,70.0012,45.4469,269.6272,90.443,1.0553e-05,1.056e-05,0.0,0 STARLINK-5070,1 55654U 23021AC  23085.93701697  .00001056  00000-0  10553-4 0  9993,2 55654  70.0012  45.4469 0004309 269.6272  90.4430 15.69932044  6682,6737.228,91.724,361.996,356.19,0.0
55654.0,STARLINK-5070,PAYLOAD,2023-03-27 04:36:18,15.69949975,0.0003844,70.0026,44.7332,258.2707,101.8057,5.1598e-05,6.003e-05,0.0,0 STARLINK-5070,1 55654U 23021AC  23086.19187934  .00006003  00000-0  51598-4 0  9995,2 55654  70.0026  44.7332 0003844 258.2707 101.8057 15.69949975  6423,6737.177,91.723,361.632,356.452,0.0
55654.0,STARLINK-5070,PAYLOAD,2023-03-27 07:39:49,15.69935819,0.0003673,70.0029,44.3753,283.0856,76.993,4.5122e-05,5.219e-05,0.0,0 STARLINK-5070,1 55654U 23021AC  23086.31931835  .00005219  00000-0  45122-4 0  9990,2 55654  70.0029  44.3753 0003673 283.0856  76.9930 15.69935819  6446,6737.218,91.723,361.557,356.608,0.0
55654.0,STARLINK-5070,PAYLOAD,2023-03-28 05:04:20,15.69924426,0.0003896,70.0025,41.8663,273.5899,86.4851,6.1207e-06,5.23e-06,0.0,0 STARLINK-5070,1 55654U 23021AC  23087.21135339  .00000523  00000-0  61207-5 0  9991,2 55654  70.0025  41.8663 0003896 273.5899  86.4851 15.69924426  6587,6737.25,91.724,361.74,356.49,0.0
55654.0,STARLINK-5070,PAYLOAD,2023-03-28 21:53:37,15.69926735,0.0004019,70.0017,39.8952,273.8831,86.1905,2.2234e-05,2.462e-05,0.0,0 STARLINK-5070,1 55654U 23021AC  23087.91223798  .00002462  00000-0  22234-4 0  9995,2 55654  70.0017  39.8952 0004019 273.8831  86.1905 15.69926735  6990,6737.244,91.724,361.816,356.401,0.0
55654.0,STARLINK-5070,PAYLOAD,2023-03-29 07:04:07,15.69941312,0.0004015,70.0038,38.8233,266.2612,93.8125,5.6156e-05,6.55e-05,0.0,0 STARLINK-5070,1 55654U 23021AC  23088.29453362  .00006550  00000-0  56156-4 0  9991,2 55654  70.0038  38.8233 0004015 266.2612  93.8125 15.69941312  6754,6737.202,91.723,361.772,356.362,0.0
55654.0,STARLINK-5070,PAYLOAD,2023-03-30 06:00:25,15.69929675,0.0003074,70.0031,36.1351,255.1526,104.933,3.3765e-05,3.85e-05,0.0,0 STARLINK-5070,1 55654U 23021AC  23089.25029078  .00003850  00000-0  33765-4 0  9992,2 55654  70.0031  36.1351 0003074 255.1526 104.9330 15.69929675  6901,6737.235,91.724,361.171,357.029,0.0
55654.0,STARLINK-5070,PAYLOAD,2023-03-31 06:28:27,15.69914141,0.0003365,70.0025,33.2665,272.749,87.3321,-2.4684e-05,-3.178e-05,0.0,0 STARLINK-5070,1 55654U 23021AC  23090.26975953 -.00003178  00000-0 -24684-4 0  9992,2 55654  70.0025  33.2665 0003365 272.7490  87.3321 15.69914141  7062,6737.28,91.725,361.412,356.878,0.0
